start=new Date('2022-05-27T00:00:00.000Z').valueOf();
sats=[{"EPOCH":"2022-05-26T15:55:08.643072","DECAY_DATE":null,"TLE_LINE2":"2 47399  53.0532 130.2788 0001449  56.1007 304.0119 15.05810499 74863","MEAN_MOTION":"15.05810499","INCLINATION":"53.0532","CLASSIFICATION_TYPE":"U","LAUNCH_DATE":"2021-01-20","REV_AT_EPOCH":"7486","ARG_OF_PERICENTER":"56.1007","TLE_LINE1":"1 47399U 21005BC  22146.66329448 -.00067765  00000-0 -46474-2 0  9997","RCS_SIZE":"LARGE","REF_FRAME":"TEME","CENTER_NAME":"EARTH","PERIOD":"95.630","OBJECT_NAME":"STARLINK-2121","RA_OF_ASC_NODE":"130.2788","MEAN_ANOMALY":"304.0119","OBJECT_TYPE":"PAYLOAD","EPHEMERIS_TYPE":"0","MEAN_MOTION_DOT":"-0.00067765","SITE":"AFETR","GP_ID":"204626706","SEMIMAJOR_AXIS":"6927.156","TIME_SYSTEM":"UTC","ELEMENT_SET_NO":"999","MEAN_ELEMENT_THEORY":"SGP4","OBJECT_ID":"2021-005BC","NORAD_CAT_ID":"47399","APOAPSIS":"550.025","ECCENTRICITY":"0.00014490","MEAN_MOTION_DDOT":"0.0000000000000","BSTAR":"-0.00464740000000","PERIAPSIS":"548.017","COUNTRY_CODE":"US","FILE":"3466271"},{"OBJECT_TYPE":"PAYLOAD","EPHEMERIS_TYPE":"0","RA_OF_ASC_NODE":"111.8241","MEAN_ANOMALY":"310.7870","OBJECT_NAME":"STARLINK-2122","PERIOD":"95.592","CENTER_NAME":"EARTH","ARG_OF_PERICENTER":"49.3292","TLE_LINE1":"1 47400U 21005BD  22146.31431505  .00000572  00000-0  57304-4 0  9997","RCS_SIZE":"LARGE","REF_FRAME":"TEME","REV_AT_EPOCH":"7509","LAUNCH_DATE":"2021-01-20","CLASSIFICATION_TYPE":"U","INCLINATION":"53.0558","MEAN_MOTION":"15.06395933","TLE_LINE2":"2 47400  53.0558 111.8241 0001983  49.3292 310.7870 15.06395933 75092","EPOCH":"2022-05-26T07:32:36.820320","DECAY_DATE":null,"COUNTRY_CODE":"US","PERIAPSIS":"545.853","FILE":"3465646","MEAN_MOTION_DDOT":"0.0000000000000","BSTAR":"0.00005730400000","ECCENTRICITY":"0.00019830","APOAPSIS":"548.599","NORAD_CAT_ID":"47400","OBJECT_ID":"2021-005BD","MEAN_ELEMENT_THEORY":"SGP4","TIME_SYSTEM":"UTC","ELEMENT_SET_NO":"999","GP_ID":"204589743","SEMIMAJOR_AXIS":"6925.361","MEAN_MOTION_DOT":"0.00000572","SITE":"AFETR"},{"NORAD_CAT_ID":"47401","ECCENTRICITY":"0.00021020","APOAPSIS":"548.651","MEAN_MOTION_DDOT":"0.0000000000000","BSTAR":"0.00006523000000","COUNTRY_CODE":"US","PERIAPSIS":"545.740","FILE":"3466271","SEMIMAJOR_AXIS":"6925.330","GP_ID":"204627209","MEAN_MOTION_DOT":"0.00000690","SITE":"AFETR","MEAN_ELEMENT_THEORY":"SGP4","TIME_SYSTEM":"UTC","ELEMENT_SET_NO":"999","OBJECT_ID":"2021-005BE","ARG_OF_PERICENTER":"34.5910","TLE_LINE1":"1 47401U 21005BE  22146.66449163  .00000690  00000-0  65230-4 0  9993","RCS_SIZE":"LARGE","REF_FRAME":"TEME","PERIOD":"95.592","CENTER_NAME":"EARTH","OBJECT_NAME":"STARLINK-2123","OBJECT_TYPE":"PAYLOAD","EPHEMERIS_TYPE":"0","RA_OF_ASC_NODE":"120.2725","MEAN_ANOMALY":"325.5215","EPOCH":"2022-05-26T15:56:52.076832","DECAY_DATE":null,"MEAN_MOTION":"15.06405967","TLE_LINE2":"2 47401  53.0568 120.2725 0002102  34.5910 325.5215 15.06405967 75010","CLASSIFICATION_TYPE":"U","INCLINATION":"53.0568","REV_AT_EPOCH":"7501","LAUNCH_DATE":"2021-01-20"},{"MEAN_MOTION_DOT":"0.00001378","SITE":"AFETR","GP_ID":"204625957","SEMIMAJOR_AXIS":"6925.356","OBJECT_ID":"2021-005BF","TIME_SYSTEM":"UTC","ELEMENT_SET_NO":"999","MEAN_ELEMENT_THEORY":"SGP4","APOAPSIS":"548.732","ECCENTRICITY":"0.00021820","NORAD_CAT_ID":"47402","PERIAPSIS":"545.710","COUNTRY_CODE":"US","FILE":"3466271","MEAN_MOTION_DDOT":"0.0000000000000","BSTAR":"0.00011140000000","TLE_LINE2":"2 47402  53.0548 120.4717 0002182  43.2653 316.8507 15.06397474 75000","MEAN_MOTION":"15.06397474","EPOCH":"2022-05-26T14:47:52.151712","DECAY_DATE":null,"LAUNCH_DATE":"2021-01-20","REV_AT_EPOCH":"7500","INCLINATION":"53.0548","CLASSIFICATION_TYPE":"U","CENTER_NAME":"EARTH","PERIOD":"95.592","TLE_LINE1":"1 47402U 21005BF  22146.61657583  .00001378  00000-0  11140-3 0  9990","ARG_OF_PERICENTER":"43.2653","RCS_SIZE":"LARGE","REF_FRAME":"TEME","RA_OF_ASC_NODE":"120.4717","MEAN_ANOMALY":"316.8507","OBJECT_TYPE":"PAYLOAD","EPHEMERIS_TYPE":"0","OBJECT_NAME":"STARLINK-2124"},{"REV_AT_EPOCH":"7500","LAUNCH_DATE":"2021-01-20","CLASSIFICATION_TYPE":"U","INCLINATION":"53.0555","MEAN_MOTION":"15.06391091","TLE_LINE2":"2 47403  53.0555 120.4484 0001750  53.8334 306.2817 15.06391091 75009","DECAY_DATE":null,"EPOCH":"2022-05-26T14:58:29.978976","EPHEMERIS_TYPE":"0","OBJECT_TYPE":"PAYLOAD","MEAN_ANOMALY":"306.2817","RA_OF_ASC_NODE":"120.4484","OBJECT_NAME":"STARLINK-2127","PERIOD":"95.593","CENTER_NAME":"EARTH","RCS_SIZE":"LARGE","TLE_LINE1":"1 47403U 21005BG  22146.62395809 -.00000658  00000-0 -25259-4 0  9991","ARG_OF_PERICENTER":"53.8334","REF_FRAME":"TEME","OBJECT_ID":"2021-005BG","MEAN_ELEMENT_THEORY":"SGP4","ELEMENT_SET_NO":"999","TIME_SYSTEM":"UTC","SEMIMAJOR_AXIS":"6925.376","GP_ID":"204626207","SITE":"AFETR","MEAN_MOTION_DOT":"-0.00000658","FILE":"3466271","PERIAPSIS":"546.029","COUNTRY_CODE":"US","BSTAR":"-0.00002525900000","MEAN_MOTION_DDOT":"0.0000000000000","APOAPSIS":"548.453","ECCENTRICITY":"0.00017500","NORAD_CAT_ID":"47403"},{"APOAPSIS":"548.756","ECCENTRICITY":"0.00022160","NORAD_CAT_ID":"47404","COUNTRY_CODE":"US","PERIAPSIS":"545.687","FILE":"3466271","MEAN_MOTION_DDOT":"0.0000000000000","BSTAR":"0.00004324900000","GP_ID":"204627458","SEMIMAJOR_AXIS":"6925.356","MEAN_MOTION_DOT":"0.00000362","SITE":"AFETR","OBJECT_ID":"2021-005BH","MEAN_ELEMENT_THEORY":"SGP4","TIME_SYSTEM":"UTC","ELEMENT_SET_NO":"999","PERIOD":"95.592","CENTER_NAME":"EARTH","ARG_OF_PERICENTER":"46.7688","TLE_LINE1":"1 47404U 21005BH  22146.62026801  .00000362  00000-0  43249-4 0  9994","RCS_SIZE":"LARGE","REF_FRAME":"TEME","OBJECT_TYPE":"PAYLOAD","EPHEMERIS_TYPE":"0","RA_OF_ASC_NODE":"120.4638","MEAN_ANOMALY":"313.3486","OBJECT_NAME":"STARLINK-2128","MEAN_MOTION":"15.06397443","TLE_LINE2":"2 47404  53.0532 120.4638 0002216  46.7688 313.3486 15.06397443 75005","EPOCH":"2022-05-26T14:53:11.156064","DECAY_DATE":null,"REV_AT_EPOCH":"7500","LAUNCH_DATE":"2021-01-20","CLASSIFICATION_TYPE":"U","INCLINATION":"53.0532"},{"GP_ID":"204627708","SEMIMAJOR_AXIS":"6925.372","SITE":"AFETR","MEAN_MOTION_DOT":"-0.00000415","OBJECT_ID":"2021-005BJ","MEAN_ELEMENT_THEORY":"SGP4","ELEMENT_SET_NO":"999","TIME_SYSTEM":"UTC","APOAPSIS":"548.567","ECCENTRICITY":"0.00019210","NORAD_CAT_ID":"47405","FILE":"3466271","PERIAPSIS":"545.907","COUNTRY_CODE":"US","BSTAR":"-0.00000897070000","MEAN_MOTION_DDOT":"0.0000000000000","MEAN_MOTION":"15.06392360","TLE_LINE2":"2 47405  53.0539 149.9338 0001921  45.8554 314.2593 15.06392360 74595","DECAY_DATE":null,"EPOCH":"2022-05-26T17:39:04.143168","REV_AT_EPOCH":"7459","LAUNCH_DATE":"2021-01-20","INCLINATION":"53.0539","CLASSIFICATION_TYPE":"U","PERIOD":"95.593","CENTER_NAME":"EARTH","TLE_LINE1":"1 47405U 21005BJ  22146.73546462 -.00000415  00000-0 -89707-5 0  9998","REF_FRAME":"TEME","RCS_SIZE":"LARGE","ARG_OF_PERICENTER":"45.8554","EPHEMERIS_TYPE":"0","OBJECT_TYPE":"PAYLOAD","MEAN_ANOMALY":"314.2593","RA_OF_ASC_NODE":"149.9338","OBJECT_NAME":"STARLINK-2130"},{"NORAD_CAT_ID":"47406","APOAPSIS":"548.474","ECCENTRICITY":"0.00018030","MEAN_MOTION_DDOT":"0.0000000000000","BSTAR":"0.00015485000000","COUNTRY_CODE":"US","PERIAPSIS":"545.977","FILE":"3466271","MEAN_MOTION_DOT":"0.00002025","SITE":"AFETR","SEMIMAJOR_AXIS":"6925.360","GP_ID":"204626457","TIME_SYSTEM":"UTC","ELEMENT_SET_NO":"999","MEAN_ELEMENT_THEORY":"SGP4","OBJECT_ID":"2021-005BK","TLE_LINE1":"1 47406U 21005BK  22146.63132863  .00002025  00000-0  15485-3 0  9991","ARG_OF_PERICENTER":"68.6244","RCS_SIZE":"LARGE","REF_FRAME":"TEME","CENTER_NAME":"EARTH","PERIOD":"95.592","OBJECT_NAME":"STARLINK-2133","RA_OF_ASC_NODE":"120.4176","MEAN_ANOMALY":"291.4937","OBJECT_TYPE":"PAYLOAD","EPHEMERIS_TYPE":"0","EPOCH":"2022-05-26T15:09:06.793632","DECAY_DATE":null,"TLE_LINE2":"2 47406  53.0557 120.4176 0001803  68.6244 291.4937 15.06396208 75008","MEAN_MOTION":"15.06396208","CLASSIFICATION_TYPE":"U","INCLINATION":"53.0557","LAUNCH_DATE":"2021-01-20","REV_AT_EPOCH":"7500"},{"BSTAR":"0.00006744300000","MEAN_MOTION_DDOT":"0.0000000000000","FILE":"3466271","PERIAPSIS":"545.592","COUNTRY_CODE":"US","NORAD_CAT_ID":"47407","ECCENTRICITY":"0.00023700","APOAPSIS":"548.874","MEAN_ELEMENT_THEORY":"SGP4","ELEMENT_SET_NO":"999","TIME_SYSTEM":"UTC","OBJECT_ID":"2021-005BL","GP_ID":"204626707","SEMIMAJOR_AXIS":"6925.368","SITE":"AFETR","MEAN_MOTION_DOT":"0.00000723","OBJECT_NAME":"STARLINK-2134","EPHEMERIS_TYPE":"0","OBJECT_TYPE":"PAYLOAD","MEAN_ANOMALY":"311.2487","RA_OF_ASC_NODE":"120.3819","TLE_LINE1":"1 47407U 21005BL  22146.63870205  .00000723  00000-0  67443-4 0  9996","RCS_SIZE":"LARGE","ARG_OF_PERICENTER":"48.8706","REF_FRAME":"TEME","PERIOD":"95.593","CENTER_NAME":"EARTH","CLASSIFICATION_TYPE":"U","INCLINATION":"53.0545","REV_AT_EPOCH":"7500","LAUNCH_DATE":"2021-01-20","DECAY_DATE":null,"EPOCH":"2022-05-26T15:19:43.857120","MEAN_MOTION":"15.06393610","TLE_LINE2":"2 47407  53.0545 120.3819 0002370  48.8706 311.2487 15.06393610 75007"},{"OBJECT_ID":"2021-005BM","TIME_SYSTEM":"UTC","ELEMENT_SET_NO":"999","MEAN_ELEMENT_THEORY":"SGP4","MEAN_MOTION_DOT":"0.00000279","SITE":"AFETR","GP_ID":"204589744","SEMIMAJOR_AXIS":"6925.369","PERIAPSIS":"545.288","COUNTRY_CODE":"US","FILE":"3465646","MEAN_MOTION_DDOT":"0.0000000000000","BSTAR":"0.00003766800000","ECCENTRICITY":"0.00028110","APOAPSIS":"549.181","NORAD_CAT_ID":"47408","LAUNCH_DATE":"2021-01-20","REV_AT_EPOCH":"7496","CLASSIFICATION_TYPE":"U","INCLINATION":"53.0547","TLE_LINE2":"2 47408  53.0547 121.7142 0002811  16.4552 343.6527 15.06393210 74968","MEAN_MOTION":"15.06393210","EPOCH":"2022-05-26T08:15:05.954688","DECAY_DATE":null,"RA_OF_ASC_NODE":"121.7142","MEAN_ANOMALY":"343.6527","OBJECT_TYPE":"PAYLOAD","EPHEMERIS_TYPE":"0","OBJECT_NAME":"STARLINK-2135","CENTER_NAME":"EARTH","PERIOD":"95.593","TLE_LINE1":"1 47408U 21005BM  22146.34381892  .00000279  00000-0  37668-4 0  9996","RCS_SIZE":"LARGE","REF_FRAME":"TEME","ARG_OF_PERICENTER":"16.4552"}];
